NORAD_CAT_ID,OBJECT_NAME,OBJECT_TYPE,EPOCH,MEAN_MOTION,ECCENTRICITY,INCLINATION,RA_OF_ASC_NODE,ARG_OF_PERICENTER,MEAN_ANOMALY,BSTAR,MEAN_MOTION_DOT,MEAN_MOTION_DDOT,TLE_LINE0,TLE_LINE1,TLE_LINE2,SEMIMAJOR_AXIS,PERIOD,APOGEE,PERIGEE,DECAYED
51966.0,STARLINK-3699,PAYLOAD,2022-12-05 16:50:24,15.08842922,0.0002795,53.2175,331.1925,32.0158,328.1004,0.00019955,2.889e-05,0.0,0 STARLINK-3699,1 51966U 22025L   22339.70166712  .00002889  00000-0  19955-3 0  9996,2 51966  53.2175 331.1925 0002795  32.0158 328.1004 15.08842922 42643,6917.871,95.437,541.67,537.803,0.0
51966.0,STARLINK-3699,PAYLOAD,2022-12-06 05:33:28,15.08855722,0.0002779,53.2166,328.8142,33.4563,326.6604,0.00025741,3.812e-05,0.0,0 STARLINK-3699,1 51966U 22025L   22340.23157903  .00003812  00000-0  25741-3 0  9995,2 51966  53.2166 328.8142 0002779  33.4563 326.6604 15.08855722 42724,6917.831999999999,95.437,541.62,537.775,0.0
51966.0,STARLINK-3699,PAYLOAD,2022-12-06 08:44:14,15.08854129,0.0002736,53.2165,328.2204,31.4284,328.6871,0.00016896,2.403e-05,0.0,0 STARLINK-3699,1 51966U 22025L   22340.36405901  .00002403  00000-0  16896-3 0  9999,2 51966  53.2165 328.2204 0002736  31.4284 328.6871 15.08854129 41656,6917.837,95.437,541.595,537.809,0.0
51966.0,STARLINK-3699,PAYLOAD,2022-12-06 16:41:10,15.08841035,0.0002939,53.2178,326.7338,34.1364,325.9817,-1.8608e-05,-5.85e-06,0.0,0 STARLINK-3699,1 51966U 22025L   22340.69526558 -.00000585  00000-0 -18608-4 0  9992,2 51966  53.2178 326.7338 0002939  34.1364 325.9817 15.08841035 41703,6917.877,95.437,541.775,537.7090000000002,0.0
51966.0,STARLINK-3699,PAYLOAD,2022-12-06 23:02:43,15.08841247,0.0002733,53.218,325.5432,35.2617,324.8556,-9.3691e-06,-4.38e-06,0.0,0 STARLINK-3699,1 51966U 22025L   22340.96022469 -.00000438  00000-0 -93691-5 0  9997,2 51966  53.2180 325.5432 0002733  35.2617 324.8556 15.08841247 42831,6917.877,95.437,541.632,537.851,0.0
51966.0,STARLINK-3699,PAYLOAD,2022-12-07 10:10:25,15.08837621,0.0002773,53.2177,323.4622,30.1099,330.0052,-5.8458e-05,-1.219e-05,0.0,0 STARLINK-3699,1 51966U 22025L   22341.42390654 -.00001219  00000-0 -58458-4 0  9992,2 51966  53.2177 323.4622 0002773  30.1099 330.0052 15.08837621 41815,6917.888000000001,95.438,541.6709999999998,537.8340000000002,0.0
51966.0,STARLINK-3699,PAYLOAD,2022-12-08 02:04:16,15.08841069,0.0002766,53.2176,320.4894,30.3738,329.7414,3.1767e-05,2.17e-06,0.0,0 STARLINK-3699,1 51966U 22025L   22342.08630696  .00000217  00000-0  31767-4 0  9997,2 51966  53.2176 320.4894 0002766  30.3738 329.7414 15.08841069 43007,6917.877,95.437,541.656,537.8290000000002,0.0
51966.0,STARLINK-3699,PAYLOAD,2022-12-08 08:25:49,15.08847118,0.000268,53.2173,319.2997,30.6052,329.5096,0.00012533,1.707e-05,0.0,0 STARLINK-3699,1 51966U 22025L   22342.35126306  .00001707  00000-0  12533-3 0  9999,2 51966  53.2173 319.2997 0002680  30.6052 329.5096 15.08847118 41958,6917.859,95.437,541.578,537.87,0.0
51966.0,STARLINK-3699,PAYLOAD,2022-12-09 08:16:35,15.08861664,0.0002722,53.2188,314.841,28.8749,331.2393,0.00034706,5.243e-05,0.0,0 STARLINK-3699,1 51966U 22025L   22343.34485671  .00005243  00000-0  34706-3 0  9997,2 51966  53.2188 314.8410 0002722  28.8749 331.2393 15.08861664 42104,6917.814,95.436,541.562,537.7959999999998,0.0
51966.0,STARLINK-3699,PAYLOAD,2022-12-10 03:21:14,15.08822888,0.0002151,53.2181,311.2704,28.3345,331.7763,-0.00078719,-0.00012789,0.0,0 STARLINK-3699,1 51966U 22025L   22344.13975048 -.00012789  00000-0 -78719-3 0  9994,2 51966  53.2181 311.2704 0002151  28.3345 331.7763 15.08822888 43312,6917.933000000001,95.439,541.286,538.31,0.0
51966.0,STARLINK-3699,PAYLOAD,2022-12-10 08:07:24,15.08817533,0.0002104,53.2183,310.3781,32.8874,327.2249,-0.00038629,-6.427e-05,0.0,0 STARLINK-3699,1 51966U 22025L   22344.33847710 -.00006427  00000-0 -38629-3 0  9998,2 51966  53.2183 310.3781 0002104  32.8874 327.2249 15.08817533 42256,6917.949000000001,95.439,541.27,538.359,0.0
51966.0,STARLINK-3699,PAYLOAD,2022-12-11 03:12:02,15.08836446,0.0002509,53.2182,306.8105,28.1006,332.0121,0.00051462,7.911e-05,0.0,0 STARLINK-3699,1 51966U 22025L   22345.13336292  .00007911  00000-0  51462-3 0  9992,2 51966  53.2182 306.8105 0002509  28.1006 332.0121 15.08836446 43460,6917.891,95.438,541.492,538.021,0.0
51966.0,STARLINK-3699,PAYLOAD,2022-12-11 07:58:12,15.08853476,0.0002503,53.218,305.9182,24.9039,335.2073,0.0011966,0.00018815,0.0,0 STARLINK-3699,1 51966U 22025L   22345.33208391  .00018815  00000-0  11966-2 0  9991,2 51966  53.2180 305.9182 0002503  24.9039 335.2073 15.08853476 42403,6917.839,95.437,541.436,537.9730000000002,0.0
51966.0,STARLINK-3699,PAYLOAD,2022-12-12 03:02:49,15.088598199999998,0.0002535,53.218,302.3499,28.4846,331.6284,0.00048377,7.424e-05,0.0,0 STARLINK-3699,1 51966U 22025L   22346.12695689  .00007424  00000-0  48377-3 0  9990,2 51966  53.2180 302.3499 0002535  28.4846 331.6284 15.08859820 43612,6917.82,95.436,541.438,537.931,0.0
51966.0,STARLINK-3699,PAYLOAD,2022-12-12 07:48:58,15.08858108,0.000255,53.2175,301.4581,27.518,332.5947,0.00035203,5.322e-05,0.0,0 STARLINK-3699,1 51966U 22025L   22346.32567536  .00005322  00000-0  35203-3 0  9990,2 51966  53.2175 301.4581 0002550  27.5180 332.5947 15.08858108 42552,6917.825,95.436,541.4540000000002,537.9259999999998,0.0
51966.0,STARLINK-3699,PAYLOAD,2022-12-13 02:53:36,15.08838838,0.0002561,53.2171,297.8893,30.4665,329.6476,-0.00010902,-2.023e-05,0.0,0 STARLINK-3699,1 51966U 22025L   22347.12055737 -.00002023  00000-0 -10902-3 0  9990,2 51966  53.2171 297.8893 0002561  30.4665 329.6476 15.08838838 43761,6917.884,95.438,541.521,537.977,0.0
51966.0,STARLINK-3699,PAYLOAD,2022-12-13 06:04:22,15.08846823,0.000252,53.2177,297.2941,28.4713,331.6417,6.5149e-05,7.49e-06,0.0,0 STARLINK-3699,1 51966U 22025L   22347.25303605  .00000749  00000-0  65149-4 0  9999,2 51966  53.2177 297.2941 0002520  28.4713 331.6417 15.08846823 42693,6917.86,95.437,541.4680000000002,537.981,0.0
51966.0,STARLINK-3699,PAYLOAD,2022-12-13 14:01:18,15.08843897,0.0002583999999999,53.2176,295.8076,28.3547,331.7586,1.6764e-05,-2.2e-07,0.0,0 STARLINK-3699,1 51966U 22025L   22347.58423653 -.00000022  00000-0  16764-4 0  9995,2 51966  53.2176 295.8076 0002584  28.3547 331.7586 15.08843897 42741,6917.868,95.437,541.521,537.946,0.0
51966.0,STARLINK-3699,PAYLOAD,2022-12-14 05:55:09,15.0884214,0.0002581,53.2175,292.8331,30.5425,329.5717,6.0019e-05,6.67e-06,0.0,0 STARLINK-3699,1 51966U 22025L   22348.24663861  .00000667  00000-0  60019-4 0  9992,2 51966  53.2175 292.8331 0002581  30.5425 329.5717 15.08842140 43931,6917.874,95.437,541.524,537.953,0.0
51966.0,STARLINK-3699,PAYLOAD,2022-12-14 13:52:05,15.08846625,0.0002488,53.2175,291.3463,31.8137,328.3005,0.00013391,1.844e-05,0.0,0 STARLINK-3699,1 51966U 22025L   22348.57783615  .00001844  00000-0  13391-3 0  9996,2 51966  53.2175 291.3463 0002488  31.8137 328.3005 15.08846625 42894,6917.86,95.437,541.446,538.004,0.0
51966.0,STARLINK-3699,PAYLOAD,2022-12-15 07:21:19,15.08844904,0.0002558,53.2182,288.0764,29.4797,330.6339,9.236e-05,1.182e-05,0.0,0 STARLINK-3699,1 51966U 22025L   22349.30647800  .00001182  00000-0  92360-4 0  9992,2 51966  53.2182 288.0764 0002558  29.4797 330.6339 15.08844904 43000,6917.865,95.437,541.5,537.961,0.0
51966.0,STARLINK-3699,PAYLOAD,2022-12-15 13:42:52,15.08842639,0.0002595,53.2173,286.8871,29.7888,330.3251,0.00011728,1.579e-05,0.0,0 STARLINK-3699,1 51966U 22025L   22349.57144026  .00001579  00000-0  11728-3 0  9991,2 51966  53.2173 286.8871 0002595  29.7888 330.3251 15.08842639 44138,6917.871999999999,95.437,541.533,537.942,0.0
51966.0,STARLINK-3699,PAYLOAD,2022-12-15 20:04:25,15.0884273,0.0002614,53.2172,285.6979,29.9841,330.1301,0.00017097,2.434e-05,0.0,0 STARLINK-3699,1 51966U 22025L   22349.83640048  .00002434  00000-0  17097-3 0  9991,2 51966  53.2172 285.6979 0002614  29.9841 330.1301 15.08842730 43085,6917.871999999999,95.437,541.545,537.929,0.0
51966.0,STARLINK-3699,PAYLOAD,2022-12-16 05:36:43,15.08853268,0.0002636,53.2168,283.9145,29.1023,331.0116,0.00033679,5.078e-05,0.0,0 STARLINK-3699,1 51966U 22025L   22350.23383628  .00005078  00000-0  33679-3 0  9996,2 51966  53.2168 283.9145 0002636  29.1023 331.0116 15.08853268 43143,6917.84,95.437,541.528,537.881,0.0
51966.0,STARLINK-3699,PAYLOAD,2022-12-16 19:55:12,15.08832037,0.0002812,53.2168,281.238,31.4007,328.7152,6.176100000000001e-05,6.94e-06,0.0,0 STARLINK-3699,1 51966U 22025L   22350.83000860  .00000694  00000-0  61761-4 0  9999,2 51966  53.2168 281.2380 0002812  31.4007 328.7152 15.08832037 44324,6917.905,95.438,541.715,537.8240000000002,0.0
51966.0,STARLINK-3699,PAYLOAD,2022-12-17 11:49:05,15.08818494,0.0002727,53.2168,278.264,30.8297,329.2855,-0.0001791,-3.136e-05,0.0,0 STARLINK-3699,1 51966U 22025L   22351.49242077 -.00003136  00000-0 -17910-3 0  9992,2 51966  53.2168 278.2640 0002727  30.8297 329.2855 15.08818494 43335,6917.946,95.439,541.698,537.925,0.0
51966.0,STARLINK-3699,PAYLOAD,2022-12-17 19:46:01,15.08824945,0.0002618,53.2173,276.7778,26.6014,333.5112,-3.4646e-05,-8.400000000000001e-06,0.0,0 STARLINK-3699,1 51966U 22025L   22351.82362431 -.00000840  00000-0 -34646-4 0  9991,2 51966  53.2173 276.7778 0002618  26.6014 333.5112 15.08824945 43382,6917.926,95.439,541.6030000000002,537.98,0.0
51966.0,STARLINK-3699,PAYLOAD,2022-12-18 02:07:33,15.08835053,0.0002598,53.2175,275.5879,27.4113,332.7015,-3.687e-06,-3.47e-06,0.0,0 STARLINK-3699,1 51966U 22025L   22352.08857947 -.00000347  00000-0 -36870-5 0  9995,2 51966  53.2175 275.5879 0002598  27.4113 332.7015 15.08835053 44510,6917.896,95.438,541.558,537.9630000000002,0.0
51966.0,STARLINK-3699,PAYLOAD,2022-12-18 11:39:51,15.08842307,0.000272,53.2172,273.8034,28.6745,331.4396,0.0001537,2.159e-05,0.0,0 STARLINK-3699,1 51966U 22025L   22352.48601613  .00002159  00000-0  15370-3 0  9997,2 51966  53.2172 273.8034 0002720  28.6745 331.4396 15.08842307 43485,6917.873000000001,95.437,541.62,537.857,0.0
